C/2018 A3 (ATLAS),e,139.5940,194.3429,86.4805,343.8935,0.0001545,0.99042926,0.0000,01/08.7924/2019,2000,g  8.5,4.0
# From MPC109147
P/2018 A5 (PANSTARRS),e,23.6246,87.7838,359.5402,5.624522,0.0738883,0.52449271,198.4848,02/05.0/2025,2000,g 15.0,4.0
# From MPEC 2024-JU4
C/2018 A6 (Gibbs),e,77.1449,340.4445,264.2831,14.99998,0.0169656,0.79880825,34.5549,02/05.0/2025,2000,g  9.0,4.0
# From MPC114601
P/2018 C1 (Lemmon-Read),e,5.1029,270.2227,235.7720,5.649782,0.0733933,0.53258720,186.2743,02/05.0/2025,2000,g 13.5,4.0
# From MPEC 2022-M88
C/2018 DO4 (Lemmon),e,160.4476,251.3882,176.3984,25.49922,0.0076544,0.90506372,15.3016,02/05.0/2025,2000,g 11.0,4.0
# From MPEC 2021-R75
C/2018 F1 (Grauer),e,46.1559,177.3114,71.4546,218.6867,0.0003048,0.98631315,0.0000,12/10.1656/2018,2000,g 11.5,4.0
# From MPEC 2023-A50
C/2018 F4 (PANSTARRS),e,78.1202,26.5302,263.2012,1858,0.0000123,0.99814363,0.0000,12/01.0890/2019,2000,g 11.0,6.0
# From MPEC 2021-Y10
C/2018 F4-A,e,78.1203,26.5304,263.1979,1806,0.0000128,0.99809068,0.0000,12/01.0771/2019,2000,g 11.0,6.0
# From MPEC 2023-D41
C/2018 F4-B,e,78.1213,26.5299,263.1837,1894,0.0000120,0.99817944,0.0000,12/01.0139/2019,2000,g 11.0,6.0
# From MPC114602
P/2018 H2 (PANSTARRS),e,7.4191,67.9808,119.2682,4.405599,0.1065851,0.53999294,277.7830,02/05.0/2025,2000,g 16.6,2.0
# From MPEC 2021-R75
C/2018 KJ3 (Lemmon),e,136.6210,91.6950,217.5504,727.0246,0.0000503,0.99502357,0.0000,09/09.0891/2019,2000,g 12.2,2.0
# From MPC114602
P/2018 L1 (PANSTARRS),e,10.5785,268.5843,17.9615,3.657444,0.1409086,0.48126245,321.4108,02/05.0/2025,2000,g 15.0,4.0
# From MPEC 2021-P47
C/2018 L2 (ATLAS),e,67.2027,242.9841,56.3503,238.3931,0.0002678,0.99277970,0.0000,11/29.8939/2018,2000,g 10.0,4.0
# From MPC114603
P/2018 L4 (PANSTARRS),e,26.5919,145.2242,140.5186,4.948418,0.0895374,0.65820063,213.5890,02/05.0/2025,2000,g 17.5,4.0
# From MPEC 2022-YN2
C/2018 N2 (ASASSN),h,11/12.0742/2019,77.5145,24.5165,25.3150,1.001960,3.134662,2000,6.0,4.0
# From MPC114603
P/2018 P4 (PANSTARRS),e,23.0834,353.1557,8.5158,6.694930,0.0568964,0.44928391,129.7974,02/05.0/2025,2000,g 12.0,4.0
# From MPEC 2021-P47
C/2018 P5 (PANSTARRS),e,7.2462,216.2611,132.0467,12.84877,0.0213999,0.64182436,46.4520,02/05.0/2025,2000,g 11.0,4.0
# From MPC118841
C/2018 R3 (Lemmon),e,69.6925,324.3962,112.7780,1753,0.0000134,0.99926818,0.0000,06/08.1029/2019,2000,g  9.5,4.0
# From MPC114603
C/2018 R5 (Lemmon),e,103.6959,171.2520,178.2754,22.98390,0.0089448,0.84169073,19.8328,02/05.0/2025,2000,g 11.5,4.0
# From MPEC 2022-QC6
C/2018 S2 (TESS),e,64.1100,85.1066,290.9342,14.37070,0.0180920,0.61807759,41.3072,02/05.0/2025,2000,g  7.5,4.0
# From MPEC 2024-JU4
C/2018 U1 (Lemmon),h,11/02.3426/2021,108.3257,75.5169,180.3765,1.000408,4.987295,2000,5.0,4.0
# From MPC114604
C/2018 V1 (Machholz-Fujikawa-Iwamoto),h,12/03.8343/2018,144.1920,129.5524,89.5452,1.000451,0.391373,2000,12.0,4.0
# From MPC115884
C/2018 V2 (ATLAS),e,159.1631,357.1953,319.2615,25.23200,0.0077764,0.90120368,17.5977,02/05.0/2025,2000,g 15.0,4.0
# From MPC181178
P/2018 VN2 (Leonard),e,18.2585,226.4402,138.9289,4.061197,0.1204267,0.47823204,292.9578,02/05.0/2025,2000,g 15.0,4.0
# From MPC181178
A/2018 V3,e,164.9187,308.8090,3.5896,127.8207,0.0006820,0.98958256,0.0000,09/10.4287/2019,2000,g 15.7,2.0
# From MPEC 2022-M21
C/2018 V4 (Africano),e,69.0456,78.2428,0.0739,214.3293,0.0003141,0.98506177,0.0000,03/02.3640/2019,2000,g 12.5,4.0
# From MPEC 2021-P47
P/2018 V5 (Trujillo-Sheppard),e,10.5797,171.3013,260.8432,8.978500,0.0366352,0.47590103,84.7692,02/05.0/2025,2000,g 12.5,4.0
# From MPEC 2021-P47
C/2018 W1 (Catalina),e,83.4122,233.6476,251.1725,21.73510,0.0097266,0.93777610,20.3713,02/05.0/2025,2000,g 15.5,2.0
# From MPEC 2021-P47
C/2018 W2 (Africano),h,09/05.5926/2019,116.5561,181.9489,158.2264,1.000925,1.465826,2000,9.5,4.0
# From MPEC 2023-M14
A/2018 W3,e,104.8404,251.6919,313.8865,709.1870,0.0000522,0.99395962,0.0000,04/13.1533/2021,2000,g 10.7,2.0
# From MPC119996
C/2018 X2 (Fitzsimmons),e,23.1015,340.6612,161.9827,140.2053,0.0005937,0.98494019,0.0000,07/09.5563/2019,2000,g 12.0,4.0
# From MPC114604
C/2018 X3 (PANSTARRS),e,43.4284,78.7941,359.8465,12.40687,0.0225533,0.78294185,50.2132,02/05.0/2025,2000,g 14.5,4.0
# From MPEC 2024-A43
C/2018 Y1 (Iwamoto),e,160.4728,147.3549,357.8602,126.2950,0.0006944,0.98977495,0.0000,02/03.6589/2019,2000,g 11.5,4.0
# From MPC114605
P/2018 Y2 (Africano),e,11.6942,297.1227,162.3594,7.456057,0.0484106,0.48003988,107.6500,02/05.0/2025,2000,g 11.5,4.0
# From MPC114605
P/2019 A1 (PANSTARRS),e,13.7697,312.2145,150.7716,5.112735,0.0852558,0.57025281,196.5877,02/05.0/2025,2000,g 16.0,4.0
# From MPEC 2021-P47
P/2019 A2 (ATLAS),e,14.8716,139.3737,323.9330,5.710464,0.0722266,0.38325145,163.6123,02/05.0/2025,2000,g 10.5,4.0
# From MPEC 2022-M21
P/2019 A3 (PANSTARRS),e,15.3613,31.3228,325.7065,3.147343,0.1765176,0.26716422,59.8615,02/05.0/2025,2000,g 16.0,4.0
# From MPEC 2022-L66
P/2019 A4 (PANSTARRS),e,13.3054,119.3543,343.1972,2.614530,0.2331383,0.08741046,164.0132,02/05.0/2025,2000,g 15.0,4.0
# From MPEC 2021-P47
C/2019 A5 (PANSTARRS),e,67.5497,146.5264,355.8008,21.49242,0.0098918,0.70634712,20.4784,02/05.0/2025,2000,g  9.5,4.0
# From MPC114605
P/2019 A6 (Lemmon-PANSTARRS),e,33.2965,280.1748,156.2410,5.356697,0.0794984,0.64042160,186.6856,02/05.0/2025,2000,g 16.0,4.0
# From MPC115884
P/2019 A8 (PANSTARRS),e,2.2141,114.2065,62.7981,4.360832,0.1082306,0.22451453,269.0146,02/05.0/2025,2000,g 16.0,4.0
# From MPC118842
C/2019 A9 (PANSTARRS),e,84.3936,278.4678,237.8854,39.26743,0.0040055,0.96364759,8.0915,02/05.0/2025,2000,g 15.0,4.0
# From MPEC 2022-L66
C/2019 B1 (Africano),e,123.4839,290.2420,174.8082,139.0738,0.0006009,0.98848057,0.0000,03/18.2827/2019,2000,g 16.0,4.0
# From MPC115885
P/2019 B2 (Groeller),e,16.9564,175.6771,0.6494,3.926512,0.1266758,0.35778266,265.0497,02/05.0/2025,2000,g 14.5,4.0
# From MPEC 2024-JU4
C/2019 B3 (PANSTARRS),e,66.5901,358.4064,263.9893,3940,0.0000040,0.99826699,0.0000,01/19.6678/2021,2000,g  5.5,4.0
# From MPEC 2021-P47
C/2019 C1 (ATLAS),e,36.0429,212.3784,319.0082,673.3918,0.0000564,0.99024663,0.0000,05/04.3316/2020,2000,g 10.0,4.0
# From MPEC 2022-O08
C/2019 D1 (Flewelling),e,34.0013,231.6538,70.7330,137.5234,0.0006111,0.98842378,0.0000,05/09.1706/2019,2000,g 13.0,4.0
# From MPC181178
C/2019 E3 (ATLAS),e,84.3101,347.2033,280.7157,5096,0.0000027,0.99797638,0.0000,11/15.5556/2023,2000,g  2.5,4.0
# From MPEC 2024-GJ3
C/2019 F1 (ATLAS-Africano),h,06/21.3910/2021,54.2428,38.6637,251.3187,1.000553,3.608785,2000,5.5,4.0
# From MPC181178
C/2019 F2 (ATLAS),e,19.3261,175.3587,11.6146,16.55894,0.0146270,0.86469016,28.9243,02/05.0/2025,2000,g 12.0,4.0
# From MPEC 2024-E01
C/2019 G2 (PANSTARRS),e,159.2442,208.2176,82.7415,400.2115,0.0001231,0.99424382,0.0000,12/06.7021/2019,2000,g 15.0,4.0
# From MPEC 2022-VC5
A/2019 G3,e,156.8057,49.9054,161.7597,17.12909,0.0139028,0.83436858,31.3496,02/05.0/2025,2000,g 17.1,2.0
# From MPC114607
P/2019 GG21 (PANSTARRS),e,6.0847,340.5641,208.5867,7.468394,0.0482907,0.47167292,101.3315,02/05.0/2025,2000,g 12.0,4.0
# From MPEC 2022-M21
C/2019 H1 (NEOWISE),e,104.3572,269.3121,19.2576,231.1542,0.0002804,0.99203766,0.0000,04/27.1697/2019,2000,g 15.5,4.0
# From MPEC 2023-A50
C/2019 J1 (Lemmon),e,24.5229,98.2338,167.5974,66.72013,0.0018085,0.96277782,3.8556,02/05.0/2025,2000,g 12.0,4.0
# From MPEC 2021-R75
C/2019 J2 (Palomar),e,105.2282,25.4923,98.5714,160.4722,0.0004848,0.98931070,0.0000,07/21.0731/2019,2000,g 13.0,4.0
# From MPC117071
C/2019 J3 (ATLAS),h,08/02.1739/2019,131.2943,270.6552,16.5116,1.000040,2.362638,2000,13.5,4.0
# From MPEC 2022-M21
C/2019 JU6 (ATLAS),e,148.3090,21.7119,94.8180,35528,0.0000001,0.99994277,0.0000,06/02.8975/2019,2000,g 14.5,4.0
# From MPEC 2022-O08
C/2019 K1 (ATLAS),e,87.0121,73.3059,265.7713,3285,0.0000052,0.99938508,0.0000,02/11.2521/2020,2000,g 10.0,4.0
# From MPC119997
C/2019 K4 (Ye),e,105.2911,180.2659,140.0121,1610,0.0000153,0.99858643,0.0000,06/15.2443/2019,2000,g 12.5,4.0
# From MPEC 2021-P47
C/2019 K5 (Young),e,15.2982,177.2545,175.1526,169.1877,0.0004479,0.98786300,0.0000,06/21.7304/2019,2000,g 13.0,4.0
# From MPEC 2021-P47
C/2019 K6 (PANSTARRS),e,132.3845,42.9899,187.4523,985.4243,0.0000319,0.99602440,0.0000,05/18.8714/2020,2000,g 11.5,4.0
# From MPEC 2024-GJ3
C/2019 K7 (Smith),h,06/17.3407/2020,103.4852,308.0284,27.3757,1.000572,4.475487,2000,6.0,4.0
# From MPEC 2021-R75
C/2019 K8 (ATLAS),e,93.0564,290.9941,85.3665,1790,0.0000130,0.99821386,0.0000,07/20.5819/2019,2000,g 11.5,4.0
# From MPEC 2023-A50
C/2019 L1 (PANSTARRS),e,9.9732,254.4263,50.0313,9.822524,0.0320162,0.70424411,64.2951,02/05.0/2025,2000,g 13.5,4.0
# From MPC115886
C/2019 L2 (NEOWISE),e,152.1650,12.5742,18.8590,25.14651,0.0078161,0.93547077,16.6832,02/05.0/2025,2000,g 16.0,4.0
# From MPEC 2024-GJ3
P/2019 LD2 (ATLAS),e,11.6004,179.0286,116.8802,5.178235,0.0836434,0.12959041,152.8826,02/05.0/2025,2000,g  8.5,4.0
# From MPC181178
C/2019 L3 (ATLAS),h,01/10.0514/2022,48.3452,290.7233,171.7221,1.002980,3.557204,2000,4.5,4.0
# From MPC181179
P/2019 LM4 (Palomar),e,36.4187,72.8960,68.2006,5.702957,0.0723692,0.58596947,148.9017,02/05.0/2025,2000,g  9.5,4.0
# From MPC118095
C/2019 LB7 (Kleyna),e,164.2823,3.9752,336.7521,34.99162,0.0047617,0.92867118,10.1986,02/05.0/2025,2000,g 17.0,4.0
# From MPC118095
C/2019 M3 (ATLAS),e,99.6276,155.0283,87.9353,4771,0.0000030,0.99949165,0.0000,12/31.2921/2018,2000,g 12.2,4.0
# From MPEC 2023-JA2
C/2019 M4 (TESS),h,09/10.2166/2019,65.6835,52.6463,260.3525,1.000922,9.191208,2000,5.0,4.0
# From MPEC 2023-C45
C/2019 N1 (ATLAS),e,82.5008,13.5291,193.3488,998.3751,0.0000312,0.99829391,0.0000,11/30.6064/2020,2000,g  7.5,4.0
# From MPEC 2023-CD8
A/2019 N2,e,89.3241,276.2199,347.0972,1212,0.0000234,0.99839778,0.0000,08/22.5136/2019,2000,g 12.5,2.0
# From MPEC 2022-A21
C/2019 NJ3 (Lemmon),h,10/22.5029/2020,99.3496,142.4908,246.8806,1.001660,4.362939,2000,9.0,4.0
# From MPEC 2024-R10
C/2019 O2 (PANSTARRS),e,93.3066,48.2605,129.5837,58.66413,0.0021935,0.83496889,1.4714,02/05.0/2025,2000,g  5.0,4.0
